SL-3 R/B                
1 13403U 82079B   25362.90163584  .00009385  00000+0  38491-3 0  9993
2 13403  81.1472 276.6089 0026676  47.1834 313.1635 15.23791015366919
SL-14 R/B               
1 13553U 82092B   25362.98002990  .00000694  00000+0  75261-4 0  9996
2 13553  82.5668 207.5232 0020497 171.6623 304.2287 14.86572219318422
SL-3 R/B                
1 13819U 83010B   25362.71802018  .00017550  00000+0  38338-3 0  9994
2 13819  81.1041  89.1095 0016437 294.1688  65.7837 15.43912603346980
SL-3 R/B                
1 14208U 83075B   25362.94045021  .00015390  00000+0  43021-3 0  9991
2 14208  97.6113 359.9721 0024297 119.9697 240.3963 15.36481191319285
COSMOS 1536             
1 14699U 84013A   25362.90745480  .00010056  00000+0  42861-3 0  9995
2 14699  82.5447 178.1278 0014838 166.7956 193.3672 15.22715985261846
SL-14 R/B               
1 14820U 84027B   25362.31351155  .00000696  00000+0  76924-4 0  9990
2 14820  82.5425 311.9513 0017181 205.3491 154.6884 14.85891817237031
SL-8 R/B                
1 15483U 85006B   25362.84805435  .00000359  00000+0  12799-3 0  9992
2 15483  74.0458  31.4974 0019368 320.5758 220.4992 14.37731519143845
SL-12 R/B(2)            
1 15772U 85042D   25362.85837169  .00000140  00000+0  84277-4 0  9992
2 15772  71.1065 237.3684 0037176 237.8251 198.4211 14.21956638104320
SL-14 R/B               
1 15945U 85069B   25362.72395446  .00000668  00000+0  72767-4 0  9992
2 15945  82.5272  91.6767 0020221  69.3672 290.9711 14.86343233162294
SL-16 R/B               
1 16182U 85097B   25362.95157726 -.00000156  00000+0 -54135-4 0  9992
2 16182  71.0031 289.4730 0007680 345.9805  83.4077 14.16586657 77215
SL-14 R/B               
1 16496U 86006B   25362.85341989  .00000790  00000+0  81222-4 0  9995
2 16496  82.5275 326.3891 0077569 146.4885 214.1276 14.86692573138689
COSMOS 1743             
1 16719U 86034A   25362.89589536  .00044039  00000+0  69944-3 0  9990
2 16719  82.5344 147.7986 0005119 187.7297 172.3878 15.53138052169242
