CCSDS_OMM_VERS = 2.0
CREATION_DATE  = 
ORIGINATOR     = 

OBJECT_NAME    = SL-3 R/B
OBJECT_ID      = 1982-079B
CENTER_NAME    = EARTH
REF_FRAME      = TEME
TIME_SYSTEM    = UTC
MEAN_ELEMENT_THEORY = SGP/SGP4

EPOCH          = 2025-12-28T21:38:21.336576
MEAN_MOTION    = 15.23791015
ECCENTRICITY   = .00266765
INCLINATION    = 81.1472
RA_OF_ASC_NODE = 276.6089
ARG_OF_PERICENTER = 47.1834
MEAN_ANOMALY   = 313.1635

EPHEMERIS_TYPE = 0
CLASSIFICATION_TYPE = U
NORAD_CAT_ID   = 13403
ELEMENT_SET_NO = 999
REV_AT_EPOCH   = 36691
BSTAR          = .38491137E-3
MEAN_MOTION_DOT = .9385E-4
MEAN_MOTION_DDOT = 0

CCSDS_OMM_VERS = 2.0
CREATION_DATE  = 
ORIGINATOR     = 

OBJECT_NAME    = SL-14 R/B
OBJECT_ID      = 1982-092B
CENTER_NAME    = EARTH
REF_FRAME      = TEME
TIME_SYSTEM    = UTC
MEAN_ELEMENT_THEORY = SGP/SGP4

EPOCH          = 2025-12-28T23:31:14.583360
MEAN_MOTION    = 14.86572219
ECCENTRICITY   = .00204976
INCLINATION    = 82.5668
RA_OF_ASC_NODE = 207.5232
ARG_OF_PERICENTER = 171.6623
MEAN_ANOMALY   = 304.2287

EPHEMERIS_TYPE = 0
CLASSIFICATION_TYPE = U
NORAD_CAT_ID   = 13553
ELEMENT_SET_NO = 999
REV_AT_EPOCH   = 31842
BSTAR          = .75260937E-4
MEAN_MOTION_DOT = .694E-5
MEAN_MOTION_DDOT = 0

CCSDS_OMM_VERS = 2.0
CREATION_DATE  = 
ORIGINATOR     = 

OBJECT_NAME    = SL-3 R/B
OBJECT_ID      = 1983-010B
CENTER_NAME    = EARTH
REF_FRAME      = TEME
TIME_SYSTEM    = UTC
MEAN_ELEMENT_THEORY = SGP/SGP4

EPOCH          = 2025-12-28T17:13:56.943552
MEAN_MOTION    = 15.43912603
ECCENTRICITY   = .00164378
INCLINATION    = 81.1041
RA_OF_ASC_NODE = 89.1095
ARG_OF_PERICENTER = 294.1688
MEAN_ANOMALY   = 65.7837

EPHEMERIS_TYPE = 0
CLASSIFICATION_TYPE = U
NORAD_CAT_ID   = 13819
ELEMENT_SET_NO = 999
REV_AT_EPOCH   = 34698
BSTAR          = .38337785E-3
MEAN_MOTION_DOT = .1755E-3
MEAN_MOTION_DDOT = 0

CCSDS_OMM_VERS = 2.0
CREATION_DATE  = 
ORIGINATOR     = 

OBJECT_NAME    = SL-3 R/B
OBJECT_ID      = 1983-075B
CENTER_NAME    = EARTH
REF_FRAME      = TEME
TIME_SYSTEM    = UTC
MEAN_ELEMENT_THEORY = SGP/SGP4

EPOCH          = 2025-12-28T22:34:14.898144
MEAN_MOTION    = 15.36481191
ECCENTRICITY   = .00242973
INCLINATION    = 97.6113
RA_OF_ASC_NODE = 359.9721
ARG_OF_PERICENTER = 119.9697
MEAN_ANOMALY   = 240.3963

EPHEMERIS_TYPE = 0
CLASSIFICATION_TYPE = U
NORAD_CAT_ID   = 14208
ELEMENT_SET_NO = 999
REV_AT_EPOCH   = 31928
BSTAR          = .43021225E-3
MEAN_MOTION_DOT = .1539E-3
MEAN_MOTION_DDOT = 0

CCSDS_OMM_VERS = 2.0
CREATION_DATE  = 
ORIGINATOR     = 

OBJECT_NAME    = COSMOS 1536
OBJECT_ID      = 1984-013A
CENTER_NAME    = EARTH
REF_FRAME      = TEME
TIME_SYSTEM    = UTC
MEAN_ELEMENT_THEORY = SGP/SGP4

EPOCH          = 2025-12-28T21:46:44.094720
MEAN_MOTION    = 15.22715985
ECCENTRICITY   = .00148389
INCLINATION    = 82.5447
RA_OF_ASC_NODE = 178.1278
ARG_OF_PERICENTER = 166.7956
MEAN_ANOMALY   = 193.3672

EPHEMERIS_TYPE = 0
CLASSIFICATION_TYPE = U
NORAD_CAT_ID   = 14699
ELEMENT_SET_NO = 999
REV_AT_EPOCH   = 26184
BSTAR          = .42860842E-3
MEAN_MOTION_DOT = .10056E-3
MEAN_MOTION_DDOT = 0

CCSDS_OMM_VERS = 2.0
CREATION_DATE  = 
ORIGINATOR     = 

OBJECT_NAME    = SL-14 R/B
OBJECT_ID      = 1984-027B
CENTER_NAME    = EARTH
REF_FRAME      = TEME
TIME_SYSTEM    = UTC
MEAN_ELEMENT_THEORY = SGP/SGP4

EPOCH          = 2025-12-28T07:31:27.397920
MEAN_MOTION    = 14.85891817
ECCENTRICITY   = .00171811
INCLINATION    = 82.5425
RA_OF_ASC_NODE = 311.9513
ARG_OF_PERICENTER = 205.3491
MEAN_ANOMALY   = 154.6884

EPHEMERIS_TYPE = 0
CLASSIFICATION_TYPE = U
NORAD_CAT_ID   = 14820
ELEMENT_SET_NO = 999
REV_AT_EPOCH   = 23703
BSTAR          = .76924068E-4
MEAN_MOTION_DOT = .696E-5
MEAN_MOTION_DDOT = 0

CCSDS_OMM_VERS = 2.0
CREATION_DATE  = 
ORIGINATOR     = 

OBJECT_NAME    = SL-8 R/B
OBJECT_ID      = 1985-006B
CENTER_NAME    = EARTH
REF_FRAME      = TEME
TIME_SYSTEM    = UTC
MEAN_ELEMENT_THEORY = SGP/SGP4

EPOCH          = 2025-12-28T20:21:11.895840
MEAN_MOTION    = 14.37731519
ECCENTRICITY   = .00193681
INCLINATION    = 74.0458
RA_OF_ASC_NODE = 31.4974
ARG_OF_PERICENTER = 320.5758
MEAN_ANOMALY   = 220.4992

EPHEMERIS_TYPE = 0
CLASSIFICATION_TYPE = U
NORAD_CAT_ID   = 15483
ELEMENT_SET_NO = 999
REV_AT_EPOCH   = 14384
BSTAR          = .12798897E-3
MEAN_MOTION_DOT = .359E-5
MEAN_MOTION_DDOT = 0

CCSDS_OMM_VERS = 2.0
CREATION_DATE  = 
ORIGINATOR     = 

OBJECT_NAME    = SL-12 R/B(2)
OBJECT_ID      = 1985-042D
CENTER_NAME    = EARTH
REF_FRAME      = TEME
TIME_SYSTEM    = UTC
MEAN_ELEMENT_THEORY = SGP/SGP4

EPOCH          = 2025-12-28T20:36:03.314016
MEAN_MOTION    = 14.21956638
ECCENTRICITY   = .00371766
INCLINATION    = 71.1065
RA_OF_ASC_NODE = 237.3684
ARG_OF_PERICENTER = 237.8251
MEAN_ANOMALY   = 198.4211

EPHEMERIS_TYPE = 0
CLASSIFICATION_TYPE = U
NORAD_CAT_ID   = 15772
ELEMENT_SET_NO = 999
REV_AT_EPOCH   = 10432
BSTAR          = .84276943E-4
MEAN_MOTION_DOT = .14E-5
MEAN_MOTION_DDOT = 0

CCSDS_OMM_VERS = 2.0
CREATION_DATE  = 
ORIGINATOR     = 

OBJECT_NAME    = SL-14 R/B
OBJECT_ID      = 1985-069B
CENTER_NAME    = EARTH
REF_FRAME      = TEME
TIME_SYSTEM    = UTC
MEAN_ELEMENT_THEORY = SGP/SGP4

EPOCH          = 2025-12-28T17:22:29.665344
MEAN_MOTION    = 14.86343233
ECCENTRICITY   = .00202211
INCLINATION    = 82.5272
RA_OF_ASC_NODE = 91.6767
ARG_OF_PERICENTER = 69.3672
MEAN_ANOMALY   = 290.9711

EPHEMERIS_TYPE = 0
CLASSIFICATION_TYPE = U
NORAD_CAT_ID   = 15945
ELEMENT_SET_NO = 999
REV_AT_EPOCH   = 16229
BSTAR          = .72766777E-4
MEAN_MOTION_DOT = .668E-5
MEAN_MOTION_DDOT = 0

CCSDS_OMM_VERS = 2.0
CREATION_DATE  = 
ORIGINATOR     = 

OBJECT_NAME    = SL-16 R/B
OBJECT_ID      = 1985-097B
CENTER_NAME    = EARTH
REF_FRAME      = TEME
TIME_SYSTEM    = UTC
MEAN_ELEMENT_THEORY = SGP/SGP4

EPOCH          = 2025-12-28T22:50:16.275264
MEAN_MOTION    = 14.16586657
ECCENTRICITY   = .00076805
INCLINATION    = 71.0031
RA_OF_ASC_NODE = 289.4730
ARG_OF_PERICENTER = 345.9805
MEAN_ANOMALY   = 83.4077

EPHEMERIS_TYPE = 0
CLASSIFICATION_TYPE = U
NORAD_CAT_ID   = 16182
ELEMENT_SET_NO = 999
REV_AT_EPOCH   = 7721
BSTAR          = -.54135223E-4
MEAN_MOTION_DOT = -.156E-5
MEAN_MOTION_DDOT = 0

CCSDS_OMM_VERS = 2.0
CREATION_DATE  = 
ORIGINATOR     = 

OBJECT_NAME    = SL-14 R/B
OBJECT_ID      = 1986-006B
CENTER_NAME    = EARTH
REF_FRAME      = TEME
TIME_SYSTEM    = UTC
MEAN_ELEMENT_THEORY = SGP/SGP4

EPOCH          = 2025-12-28T20:28:55.478496
MEAN_MOTION    = 14.86692573
ECCENTRICITY   = .00775691
INCLINATION    = 82.5275
RA_OF_ASC_NODE = 326.3891
ARG_OF_PERICENTER = 146.4885
MEAN_ANOMALY   = 214.1276

EPHEMERIS_TYPE = 0
CLASSIFICATION_TYPE = U
NORAD_CAT_ID   = 16496
ELEMENT_SET_NO = 999
REV_AT_EPOCH   = 13868
BSTAR          = .81222341E-4
MEAN_MOTION_DOT = .79E-5
MEAN_MOTION_DDOT = 0

CCSDS_OMM_VERS = 2.0
CREATION_DATE  = 
ORIGINATOR     = 

OBJECT_NAME    = COSMOS 1743
OBJECT_ID      = 1986-034A
CENTER_NAME    = EARTH
REF_FRAME      = TEME
TIME_SYSTEM    = UTC
MEAN_ELEMENT_THEORY = SGP/SGP4

EPOCH          = 2025-12-28T21:30:05.359104
MEAN_MOTION    = 15.53138052
ECCENTRICITY   = .00051193
INCLINATION    = 82.5344
RA_OF_ASC_NODE = 147.7986
ARG_OF_PERICENTER = 187.7297
MEAN_ANOMALY   = 172.3878

EPHEMERIS_TYPE = 0
CLASSIFICATION_TYPE = U
NORAD_CAT_ID   = 16719
ELEMENT_SET_NO = 999
REV_AT_EPOCH   = 16924
BSTAR          = .69944077E-3
MEAN_MOTION_DOT = .44039E-3
MEAN_MOTION_DDOT = 0

